{
  "type": "FeatureCollection",
  "features": [
    {
      "type": "Feature",
      "id": "blr-orr-east",
      "properties": {
        "id": "blr-orr-east",
        "name": "Outer Ring Road (ORR - Silk Board to Marathahalli)",
        "type": "Tech Corridor Expressway",
        "lanes": 8,
        "length_km": 16.4,
        "capacity": 3800,
        "current_traffic": 3250,
        "speed_limit": 60,
        "average_speed": 18,
        "affected_vehicles": 56000,
        "status": "Severe Congestion",
        "congestion_pct": 85,
        "corridor": "IT Tech Corridor"
      },
      "geometry": {
        "type": "LineString",
        "coordinates": [
          [
            77.6238,
            12.9176
          ],
          [
            77.62585,
            12.9177
          ],
          [
            77.6279,
            12.9178
          ],
          [
            77.62995,
            12.9179
          ],
          [
            77.632,
            12.918
          ],
          [
            77.63438,
            12.91838
          ],
          [
            77.63675,
            12.91875
          ],
          [
            77.63912,
            12.91912
          ],
          [
            77.6415,
            12.9195
          ],
          [
            77.64387,
            12.92012
          ],
          [
            77.64625,
            12.92075
          ],
          [
            77.64862,
            12.92138
          ],
          [
            77.651,
            12.922
          ],
          [
            77.65388,
            12.9227
          ],
          [
            77.65675,
            12.9234
          ],
          [
            77.65962,
            12.9241
          ],
          [
            77.6625,
            12.9248
          ],
          [
            77.66538,
            12.92547
          ],
          [
            77.66825,
            12.92615
          ],
          [
            77.67112,
            12.92682
          ],
          [
            77.674,
            12.9275
          ],
          [
            77.67662,
            12.92862
          ],
          [
            77.67925,
            12.92975
          ],
          [
            77.68188,
            12.93088
          ],
          [
            77.6845,
            12.932
          ],
          [
            77.68625,
            12.93325
          ],
          [
            77.688,
            12.9345
          ],
          [
            77.68975,
            12.93575
          ],
          [
            77.6915,
            12.937
          ],
          [
            77.693,
            12.93925
          ],
          [
            77.6945,
            12.9415
          ],
          [
            77.696,
            12.94375
          ],
          [
            77.6975,
            12.946
          ],
          [
            77.6984,
            12.94872
          ],
          [
            77.6993,
            12.95145
          ],
          [
            77.7002,
            12.95418
          ],
          [
            77.7011,
            12.9569
          ],
          [
            77.70128,
            12.96005
          ],
          [
            77.70145,
            12.9632
          ],
          [
            77.70163,
            12.96635
          ],
          [
            77.7018,
            12.9695
          ],
          [
            77.70098,
            12.97312
          ],
          [
            77.70015,
            12.97675
          ],
          [
            77.69932,
            12.98038
          ],
          [
            77.6985,
            12.984
          ],
          [
            77.69702,
            12.98755
          ],
          [
            77.69555,
            12.9911
          ],
          [
            77.69408,
            12.99465
          ],
          [
            77.6926,
            12.9982
          ]
        ]
      }
    },
    {
      "type": "Feature",
      "id": "blr-orr-north",
      "properties": {
        "id": "blr-orr-north",
        "name": "Outer Ring Road (Hebbal to KR Puram)",
        "type": "Expressway",
        "lanes": 6,
        "length_km": 14.8,
        "capacity": 3200,
        "current_traffic": 2400,
        "speed_limit": 70,
        "average_speed": 29,
        "affected_vehicles": 41000,
        "status": "Moderate",
        "congestion_pct": 75,
        "corridor": "North-East Radial"
      },
      "geometry": {
        "type": "LineString",
        "coordinates": [
          [
            77.597,
            13.0358
          ],
          [
            77.59988,
            13.03522
          ],
          [
            77.60275,
            13.03465
          ],
          [
            77.60562,
            13.03408
          ],
          [
            77.6085,
            13.0335
          ],
          [
            77.61162,
            13.03238
          ],
          [
            77.61475,
            13.03125
          ],
          [
            77.61788,
            13.03012
          ],
          [
            77.621,
            13.029
          ],
          [
            77.62438,
            13.02762
          ],
          [
            77.62775,
            13.02625
          ],
          [
            77.63112,
            13.02488
          ],
          [
            77.6345,
            13.0235
          ],
          [
            77.63788,
            13.02212
          ],
          [
            77.64125,
            13.02075
          ],
          [
            77.64462,
            13.01938
          ],
          [
            77.648,
            13.018
          ],
          [
            77.6515,
            13.01638
          ],
          [
            77.655,
            13.01475
          ],
          [
            77.6585,
            13.01312
          ],
          [
            77.662,
            13.0115
          ],
          [
            77.666,
            13.00988
          ],
          [
            77.67,
            13.00825
          ],
          [
            77.674,
            13.00662
          ],
          [
            77.678,
            13.005
          ],
          [
            77.68165,
            13.0033
          ],
          [
            77.6853,
            13.0016
          ],
          [
            77.68895,
            12.9999
          ],
          [
            77.6926,
            12.9982
          ]
        ]
      }
    },
    {
      "type": "Feature",
      "id": "blr-hosur",
      "properties": {
        "id": "blr-hosur",
        "name": "Hosur Road / Electronic City Elevated Tollway",
        "type": "Elevated Tollway",
        "lanes": 6,
        "length_km": 9.9,
        "capacity": 3400,
        "current_traffic": 2100,
        "speed_limit": 80,
        "average_speed": 52,
        "affected_vehicles": 38000,
        "status": "Fluent",
        "congestion_pct": 61,
        "corridor": "South-East Highway"
      },
      "geometry": {
        "type": "LineString",
        "coordinates": [
          [
            77.6238,
            12.9176
          ],
          [
            77.62498,
            12.91445
          ],
          [
            77.62615,
            12.9113
          ],
          [
            77.62732,
            12.90815
          ],
          [
            77.6285,
            12.905
          ],
          [
            77.62988,
            12.90175
          ],
          [
            77.63125,
            12.8985
          ],
          [
            77.63262,
            12.89525
          ],
          [
            77.634,
            12.892
          ],
          [
            77.63538,
            12.88875
          ],
          [
            77.63675,
            12.8855
          ],
          [
            77.63812,
            12.88225
          ],
          [
            77.6395,
            12.879
          ],
          [
            77.64087,
            12.87625
          ],
          [
            77.64225,
            12.8735
          ],
          [
            77.64362,
            12.87075
          ],
          [
            77.645,
            12.868
          ],
          [
            77.64687,
            12.865
          ],
          [
            77.64875,
            12.862
          ],
          [
            77.65063,
            12.859
          ],
          [
            77.6525,
            12.856
          ],
          [
            77.65442,
            12.8533
          ],
          [
            77.65635,
            12.8506
          ],
          [
            77.65828,
            12.8479
          ],
          [
            77.6602,
            12.8452
          ],
          [
            77.6629,
            12.84265
          ],
          [
            77.6656,
            12.8401
          ],
          [
            77.6683,
            12.83755
          ],
          [
            77.671,
            12.835
          ]
        ]
      }
    },
    {
      "type": "Feature",
      "id": "blr-oldairport",
      "properties": {
        "id": "blr-oldairport",
        "name": "Old Airport Road",
        "type": "Major Arterial",
        "lanes": 4,
        "length_km": 11.2,
        "capacity": 2100,
        "current_traffic": 1800,
        "speed_limit": 50,
        "average_speed": 21,
        "affected_vehicles": 29000,
        "status": "Heavy",
        "congestion_pct": 85,
        "corridor": "East Arterial"
      },
      "geometry": {
        "type": "LineString",
        "coordinates": [
          [
            77.608,
            12.9735
          ],
          [
            77.61065,
            12.9732
          ],
          [
            77.6133,
            12.9729
          ],
          [
            77.61595,
            12.9726
          ],
          [
            77.6186,
            12.9723
          ],
          [
            77.62195,
            12.97122
          ],
          [
            77.6253,
            12.97015
          ],
          [
            77.62865,
            12.96908
          ],
          [
            77.632,
            12.968
          ],
          [
            77.635,
            12.967
          ],
          [
            77.638,
            12.966
          ],
          [
            77.641,
            12.965
          ],
          [
            77.644,
            12.964
          ],
          [
            77.647,
            12.96325
          ],
          [
            77.65,
            12.9625
          ],
          [
            77.653,
            12.96175
          ],
          [
            77.656,
            12.961
          ],
          [
            77.66,
            12.96038
          ],
          [
            77.664,
            12.95975
          ],
          [
            77.668,
            12.95912
          ],
          [
            77.672,
            12.9585
          ],
          [
            77.676,
            12.95825
          ],
          [
            77.68,
            12.958
          ],
          [
            77.684,
            12.95775
          ],
          [
            77.688,
            12.9575
          ],
          [
            77.69128,
            12.95735
          ],
          [
            77.69455,
            12.9572
          ],
          [
            77.69782,
            12.95705
          ],
          [
            77.7011,
            12.9569
          ]
        ]
      }
    },
    {
      "type": "Feature",
      "id": "blr-bellary",
      "properties": {
        "id": "blr-bellary",
        "name": "Bellary Road (KIA Airport Expressway)",
        "type": "National Highway Expressway",
        "lanes": 8,
        "length_km": 18.5,
        "capacity": 3600,
        "current_traffic": 2250,
        "speed_limit": 80,
        "average_speed": 46,
        "affected_vehicles": 34000,
        "status": "Normal",
        "congestion_pct": 62,
        "corridor": "North Airport Link"
      },
      "geometry": {
        "type": "LineString",
        "coordinates": [
          [
            77.5873,
            12.993
          ],
          [
            77.58848,
            12.99775
          ],
          [
            77.58965,
            13.0025
          ],
          [
            77.59082,
            13.00725
          ],
          [
            77.592,
            13.012
          ],
          [
            77.59325,
            13.01795
          ],
          [
            77.5945,
            13.0239
          ],
          [
            77.59575,
            13.02985
          ],
          [
            77.597,
            13.0358
          ],
          [
            77.59682,
            13.0431
          ],
          [
            77.59665,
            13.0504
          ],
          [
            77.59648,
            13.0577
          ],
          [
            77.5963,
            13.065
          ],
          [
            77.59622,
            13.07392
          ],
          [
            77.59615,
            13.08285
          ],
          [
            77.59608,
            13.09178
          ],
          [
            77.596,
            13.1007
          ],
          [
            77.59662,
            13.10928
          ],
          [
            77.59725,
            13.11785
          ],
          [
            77.59788,
            13.12642
          ],
          [
            77.5985,
            13.135
          ],
          [
            77.60013,
            13.14
          ],
          [
            77.60175,
            13.145
          ],
          [
            77.60338,
            13.15
          ],
          [
            77.605,
            13.155
          ],
          [
            77.60675,
            13.1625
          ],
          [
            77.6085,
            13.17
          ],
          [
            77.61025,
            13.1775
          ],
          [
            77.612,
            13.185
          ]
        ]
      }
    },
    {
      "type": "Feature",
      "id": "blr-sarjapur",
      "properties": {
        "id": "blr-sarjapur",
        "name": "Sarjapur Road",
        "type": "Arterial",
        "lanes": 4,
        "length_km": 12.8,
        "capacity": 1700,
        "current_traffic": 1520,
        "speed_limit": 50,
        "average_speed": 17,
        "affected_vehicles": 24000,
        "status": "Severe Congestion",
        "congestion_pct": 89,
        "corridor": "South-East Radial"
      },
      "geometry": {
        "type": "LineString",
        "coordinates": [
          [
            77.618,
            12.938
          ],
          [
            77.61975,
            12.93725
          ],
          [
            77.6215,
            12.9365
          ],
          [
            77.62325,
            12.93575
          ],
          [
            77.625,
            12.935
          ],
          [
            77.62825,
            12.93375
          ],
          [
            77.6315,
            12.9325
          ],
          [
            77.63475,
            12.93125
          ],
          [
            77.638,
            12.93
          ],
          [
            77.64125,
            12.928
          ],
          [
            77.6445,
            12.926
          ],
          [
            77.64775,
            12.924
          ],
          [
            77.651,
            12.922
          ],
          [
            77.65388,
            12.9227
          ],
          [
            77.65675,
            12.9234
          ],
          [
            77.65962,
            12.9241
          ],
          [
            77.6625,
            12.9248
          ],
          [
            77.66562,
            12.9231
          ],
          [
            77.66875,
            12.9214
          ],
          [
            77.67188,
            12.9197
          ],
          [
            77.675,
            12.918
          ],
          [
            77.67825,
            12.91625
          ],
          [
            77.6815,
            12.9145
          ],
          [
            77.68475,
            12.91275
          ],
          [
            77.688,
            12.911
          ],
          [
            77.6915,
            12.9095
          ],
          [
            77.695,
            12.908
          ],
          [
            77.6985,
            12.9065
          ],
          [
            77.702,
            12.905
          ],
          [
            77.706,
            12.90375
          ],
          [
            77.71,
            12.9025
          ],
          [
            77.714,
            12.90125
          ],
          [
            77.718,
            12.9
          ],
          [
            77.721,
            12.89875
          ],
          [
            77.724,
            12.8975
          ],
          [
            77.727,
            12.89625
          ],
          [
            77.73,
            12.895
          ]
        ]
      }
    }
  ]
}