{
  "type": "FeatureCollection",
  "features": [
    {
      "type": "Feature",
      "id": "mum-weh",
      "properties": {
        "id": "mum-weh",
        "name": "Western Express Highway (WEH)",
        "type": "Expressway",
        "lanes": 8,
        "length_km": 25.3,
        "capacity": 3600,
        "current_traffic": 2650,
        "speed_limit": 80,
        "average_speed": 24,
        "affected_vehicles": 48000,
        "status": "Heavy",
        "congestion_pct": 74,
        "corridor": "North-South Western"
      },
      "geometry": {
        "type": "LineString",
        "coordinates": [
          [
            72.8427,
            19.0558
          ],
          [
            72.84282,
            19.05735
          ],
          [
            72.84295,
            19.0589
          ],
          [
            72.84308,
            19.06045
          ],
          [
            72.8432,
            19.062
          ],
          [
            72.84335,
            19.06438
          ],
          [
            72.8435,
            19.06675
          ],
          [
            72.84365,
            19.06912
          ],
          [
            72.8438,
            19.0715
          ],
          [
            72.84398,
            19.07413
          ],
          [
            72.84415,
            19.07675
          ],
          [
            72.84432,
            19.07938
          ],
          [
            72.8445,
            19.082
          ],
          [
            72.84467,
            19.08425
          ],
          [
            72.84485,
            19.0865
          ],
          [
            72.84503,
            19.08875
          ],
          [
            72.8452,
            19.091
          ],
          [
            72.84553,
            19.09388
          ],
          [
            72.84585,
            19.09675
          ],
          [
            72.84618,
            19.09962
          ],
          [
            72.8465,
            19.1025
          ],
          [
            72.84668,
            19.10488
          ],
          [
            72.84685,
            19.10725
          ],
          [
            72.84702,
            19.10962
          ],
          [
            72.8472,
            19.112
          ],
          [
            72.8474,
            19.11412
          ],
          [
            72.8476,
            19.11625
          ],
          [
            72.8478,
            19.11838
          ],
          [
            72.848,
            19.1205
          ],
          [
            72.84838,
            19.1235
          ],
          [
            72.84875,
            19.1265
          ],
          [
            72.84912,
            19.1295
          ],
          [
            72.8495,
            19.1325
          ],
          [
            72.84988,
            19.13562
          ],
          [
            72.85025,
            19.13875
          ],
          [
            72.85063,
            19.14188
          ],
          [
            72.851,
            19.145
          ],
          [
            72.8513,
            19.14838
          ],
          [
            72.8516,
            19.15175
          ],
          [
            72.8519,
            19.15512
          ],
          [
            72.8522,
            19.1585
          ],
          [
            72.85252,
            19.16188
          ],
          [
            72.85285,
            19.16525
          ],
          [
            72.85317,
            19.16862
          ],
          [
            72.8535,
            19.172
          ],
          [
            72.85382,
            19.1755
          ],
          [
            72.85415,
            19.179
          ],
          [
            72.85447,
            19.1825
          ],
          [
            72.8548,
            19.186
          ],
          [
            72.85505,
            19.18912
          ],
          [
            72.8553,
            19.19225
          ],
          [
            72.85555,
            19.19537
          ],
          [
            72.8558,
            19.1985
          ],
          [
            72.85598,
            19.20162
          ],
          [
            72.85615,
            19.20475
          ],
          [
            72.85632,
            19.20787
          ],
          [
            72.8565,
            19.211
          ],
          [
            72.85668,
            19.21387
          ],
          [
            72.85685,
            19.21675
          ],
          [
            72.85703,
            19.21962
          ],
          [
            72.8572,
            19.2225
          ],
          [
            72.85735,
            19.22488
          ],
          [
            72.8575,
            19.22725
          ],
          [
            72.85765,
            19.22962
          ],
          [
            72.8578,
            19.232
          ]
        ]
      }
    },
    {
      "type": "Feature",
      "id": "mum-eeh",
      "properties": {
        "id": "mum-eeh",
        "name": "Eastern Express Highway (EEH)",
        "type": "Expressway",
        "lanes": 8,
        "length_km": 23.6,
        "capacity": 3500,
        "current_traffic": 2200,
        "speed_limit": 80,
        "average_speed": 32,
        "affected_vehicles": 39000,
        "status": "Moderate",
        "congestion_pct": 63,
        "corridor": "North-South Eastern"
      },
      "geometry": {
        "type": "LineString",
        "coordinates": [
          [
            72.8635,
            19.0375
          ],
          [
            72.86475,
            19.04025
          ],
          [
            72.866,
            19.043
          ],
          [
            72.86725,
            19.04575
          ],
          [
            72.8685,
            19.0485
          ],
          [
            72.87018,
            19.051
          ],
          [
            72.87185,
            19.0535
          ],
          [
            72.87352,
            19.056
          ],
          [
            72.8752,
            19.0585
          ],
          [
            72.87728,
            19.06125
          ],
          [
            72.87935,
            19.064
          ],
          [
            72.88143,
            19.06675
          ],
          [
            72.8835,
            19.0695
          ],
          [
            72.88612,
            19.07263
          ],
          [
            72.88875,
            19.07575
          ],
          [
            72.89138,
            19.07888
          ],
          [
            72.894,
            19.082
          ],
          [
            72.89688,
            19.086
          ],
          [
            72.89975,
            19.09
          ],
          [
            72.90262,
            19.094
          ],
          [
            72.9055,
            19.098
          ],
          [
            72.90788,
            19.1015
          ],
          [
            72.91025,
            19.105
          ],
          [
            72.91263,
            19.1085
          ],
          [
            72.915,
            19.112
          ],
          [
            72.91738,
            19.11562
          ],
          [
            72.91975,
            19.11925
          ],
          [
            72.92212,
            19.12288
          ],
          [
            72.9245,
            19.1265
          ],
          [
            72.92688,
            19.13075
          ],
          [
            72.92925,
            19.135
          ],
          [
            72.93162,
            19.13925
          ],
          [
            72.934,
            19.1435
          ],
          [
            72.93612,
            19.14762
          ],
          [
            72.93825,
            19.15175
          ],
          [
            72.94037,
            19.15588
          ],
          [
            72.9425,
            19.16
          ],
          [
            72.94412,
            19.16388
          ],
          [
            72.94575,
            19.16775
          ],
          [
            72.94737,
            19.17162
          ],
          [
            72.949,
            19.1755
          ],
          [
            72.95112,
            19.179
          ],
          [
            72.95325,
            19.1825
          ],
          [
            72.95538,
            19.186
          ],
          [
            72.9575,
            19.1895
          ],
          [
            72.95925,
            19.1925
          ],
          [
            72.961,
            19.1955
          ],
          [
            72.96275,
            19.1985
          ],
          [
            72.9645,
            19.2015
          ]
        ]
      }
    },
    {
      "type": "Feature",
      "id": "mum-bwsl",
      "properties": {
        "id": "mum-bwsl",
        "name": "Bandra-Worli Sea Link",
        "type": "Toll Expressway",
        "lanes": 8,
        "length_km": 5.6,
        "capacity": 4000,
        "current_traffic": 2100,
        "speed_limit": 80,
        "average_speed": 48,
        "affected_vehicles": 31000,
        "status": "Fluent",
        "congestion_pct": 52,
        "corridor": "Coastal"
      },
      "geometry": {
        "type": "LineString",
        "coordinates": [
          [
            72.8285,
            19.0475
          ],
          [
            72.82793,
            19.04658
          ],
          [
            72.82735,
            19.04565
          ],
          [
            72.82678,
            19.04472
          ],
          [
            72.8262,
            19.0438
          ],
          [
            72.82552,
            19.04265
          ],
          [
            72.82485,
            19.0415
          ],
          [
            72.82418,
            19.04035
          ],
          [
            72.8235,
            19.0392
          ],
          [
            72.82268,
            19.03778
          ],
          [
            72.82185,
            19.03635
          ],
          [
            72.82102,
            19.03493
          ],
          [
            72.8202,
            19.0335
          ],
          [
            72.8196,
            19.03225
          ],
          [
            72.819,
            19.031
          ],
          [
            72.8184,
            19.02975
          ],
          [
            72.8178,
            19.0285
          ],
          [
            72.8172,
            19.027
          ],
          [
            72.8166,
            19.0255
          ],
          [
            72.816,
            19.024
          ],
          [
            72.8154,
            19.0225
          ],
          [
            72.8151,
            19.02125
          ],
          [
            72.8148,
            19.02
          ],
          [
            72.8145,
            19.01875
          ],
          [
            72.8142,
            19.0175
          ],
          [
            72.81415,
            19.0165
          ],
          [
            72.8141,
            19.0155
          ],
          [
            72.81405,
            19.0145
          ],
          [
            72.814,
            19.0135
          ],
          [
            72.8142,
            19.01257
          ],
          [
            72.8144,
            19.01165
          ],
          [
            72.8146,
            19.01072
          ],
          [
            72.8148,
            19.0098
          ],
          [
            72.8154,
            19.00905
          ],
          [
            72.816,
            19.0083
          ],
          [
            72.8166,
            19.00755
          ],
          [
            72.8172,
            19.0068
          ],
          [
            72.81765,
            19.00647
          ],
          [
            72.8181,
            19.00615
          ],
          [
            72.81855,
            19.00583
          ],
          [
            72.819,
            19.0055
          ]
        ]
      }
    },
    {
      "type": "Feature",
      "id": "mum-jvlr",
      "properties": {
        "id": "mum-jvlr",
        "name": "Jogeshwari-Vikhroli Link Road (JVLR)",
        "type": "Arterial Link",
        "lanes": 6,
        "length_km": 10.6,
        "capacity": 2400,
        "current_traffic": 1950,
        "speed_limit": 60,
        "average_speed": 21,
        "affected_vehicles": 28000,
        "status": "Heavy",
        "congestion_pct": 81,
        "corridor": "East-West Connector"
      },
      "geometry": {
        "type": "LineString",
        "coordinates": [
          [
            72.8495,
            19.1325
          ],
          [
            72.85163,
            19.13213
          ],
          [
            72.85375,
            19.13175
          ],
          [
            72.85588,
            19.13137
          ],
          [
            72.858,
            19.131
          ],
          [
            72.86062,
            19.1305
          ],
          [
            72.86325,
            19.13
          ],
          [
            72.86588,
            19.1295
          ],
          [
            72.8685,
            19.129
          ],
          [
            72.871,
            19.12862
          ],
          [
            72.8735,
            19.12825
          ],
          [
            72.876,
            19.12788
          ],
          [
            72.8785,
            19.1275
          ],
          [
            72.88162,
            19.12712
          ],
          [
            72.88475,
            19.12675
          ],
          [
            72.88788,
            19.12638
          ],
          [
            72.891,
            19.126
          ],
          [
            72.89412,
            19.12575
          ],
          [
            72.89725,
            19.1255
          ],
          [
            72.90038,
            19.12525
          ],
          [
            72.9035,
            19.125
          ],
          [
            72.90625,
            19.12463
          ],
          [
            72.909,
            19.12425
          ],
          [
            72.91175,
            19.12387
          ],
          [
            72.9145,
            19.1235
          ],
          [
            72.917,
            19.12425
          ],
          [
            72.9195,
            19.125
          ],
          [
            72.922,
            19.12575
          ],
          [
            72.9245,
            19.1265
          ]
        ]
      }
    },
    {
      "type": "Feature",
      "id": "mum-bkc",
      "properties": {
        "id": "mum-bkc",
        "name": "BKC Main Boulevard & Connector",
        "type": "Business District Arterial",
        "lanes": 6,
        "length_km": 4.8,
        "capacity": 2800,
        "current_traffic": 2380,
        "speed_limit": 50,
        "average_speed": 19,
        "affected_vehicles": 35000,
        "status": "Congested",
        "congestion_pct": 85,
        "corridor": "Central Commercial"
      },
      "geometry": {
        "type": "LineString",
        "coordinates": [
          [
            72.8427,
            19.0558
          ],
          [
            72.8449,
            19.05672
          ],
          [
            72.8471,
            19.05765
          ],
          [
            72.8493,
            19.05858
          ],
          [
            72.8515,
            19.0595
          ],
          [
            72.85412,
            19.0605
          ],
          [
            72.85675,
            19.0615
          ],
          [
            72.85938,
            19.0625
          ],
          [
            72.862,
            19.0635
          ],
          [
            72.8635,
            19.06425
          ],
          [
            72.865,
            19.065
          ],
          [
            72.8665,
            19.06575
          ],
          [
            72.868,
            19.0665
          ],
          [
            72.87012,
            19.06712
          ],
          [
            72.87225,
            19.06775
          ],
          [
            72.87437,
            19.06838
          ],
          [
            72.8765,
            19.069
          ],
          [
            72.8785,
            19.06737
          ],
          [
            72.8805,
            19.06575
          ],
          [
            72.8825,
            19.06412
          ],
          [
            72.8845,
            19.0625
          ]
        ]
      }
    },
    {
      "type": "Feature",
      "id": "mum-svroad",
      "properties": {
        "id": "mum-svroad",
        "name": "Swami Vivekanand (SV) Road",
        "type": "Major Arterial",
        "lanes": 4,
        "length_km": 22.0,
        "capacity": 1800,
        "current_traffic": 1550,
        "speed_limit": 50,
        "average_speed": 16,
        "affected_vehicles": 26000,
        "status": "Heavy",
        "congestion_pct": 86,
        "corridor": "Western Suburb Arterial"
      },
      "geometry": {
        "type": "LineString",
        "coordinates": [
          [
            72.836,
            19.055
          ],
          [
            72.83638,
            19.05925
          ],
          [
            72.83675,
            19.0635
          ],
          [
            72.83712,
            19.06775
          ],
          [
            72.8375,
            19.072
          ],
          [
            72.83775,
            19.076
          ],
          [
            72.838,
            19.08
          ],
          [
            72.83825,
            19.084
          ],
          [
            72.8385,
            19.088
          ],
          [
            72.83875,
            19.0915
          ],
          [
            72.839,
            19.095
          ],
          [
            72.83925,
            19.0985
          ],
          [
            72.8395,
            19.102
          ],
          [
            72.83988,
            19.10625
          ],
          [
            72.84025,
            19.1105
          ],
          [
            72.84062,
            19.11475
          ],
          [
            72.841,
            19.119
          ],
          [
            72.84138,
            19.123
          ],
          [
            72.84175,
            19.127
          ],
          [
            72.84212,
            19.131
          ],
          [
            72.8425,
            19.135
          ],
          [
            72.84287,
            19.13925
          ],
          [
            72.84325,
            19.1435
          ],
          [
            72.84362,
            19.14775
          ],
          [
            72.844,
            19.152
          ],
          [
            72.84438,
            19.15675
          ],
          [
            72.84475,
            19.1615
          ],
          [
            72.84512,
            19.16625
          ],
          [
            72.8455,
            19.171
          ],
          [
            72.84612,
            19.17575
          ],
          [
            72.84675,
            19.1805
          ],
          [
            72.84738,
            19.18525
          ],
          [
            72.848,
            19.19
          ],
          [
            72.84862,
            19.1945
          ],
          [
            72.84925,
            19.199
          ],
          [
            72.84988,
            19.2035
          ],
          [
            72.8505,
            19.208
          ],
          [
            72.85112,
            19.21225
          ],
          [
            72.85175,
            19.2165
          ],
          [
            72.85237,
            19.22075
          ],
          [
            72.853,
            19.225
          ]
        ]
      }
    },
    {
      "type": "Feature",
      "id": "mum-lbs",
      "properties": {
        "id": "mum-lbs",
        "name": "Lal Bahadur Shastri (LBS) Marg",
        "type": "Major Arterial",
        "lanes": 4,
        "length_km": 21.0,
        "capacity": 1750,
        "current_traffic": 1480,
        "speed_limit": 50,
        "average_speed": 17,
        "affected_vehicles": 24000,
        "status": "Heavy",
        "congestion_pct": 84,
        "corridor": "Eastern Suburb Arterial"
      },
      "geometry": {
        "type": "LineString",
        "coordinates": [
          [
            72.871,
            19.048
          ],
          [
            72.873,
            19.05225
          ],
          [
            72.875,
            19.0565
          ],
          [
            72.877,
            19.06075
          ],
          [
            72.879,
            19.065
          ],
          [
            72.883,
            19.07075
          ],
          [
            72.887,
            19.0765
          ],
          [
            72.891,
            19.08225
          ],
          [
            72.895,
            19.088
          ],
          [
            72.899,
            19.094
          ],
          [
            72.903,
            19.1
          ],
          [
            72.907,
            19.106
          ],
          [
            72.911,
            19.112
          ],
          [
            72.914,
            19.11775
          ],
          [
            72.917,
            19.1235
          ],
          [
            72.92,
            19.12925
          ],
          [
            72.923,
            19.135
          ],
          [
            72.92575,
            19.14
          ],
          [
            72.9285,
            19.145
          ],
          [
            72.93125,
            19.15
          ],
          [
            72.934,
            19.155
          ],
          [
            72.93675,
            19.16
          ],
          [
            72.9395,
            19.165
          ],
          [
            72.94225,
            19.17
          ],
          [
            72.945,
            19.175
          ],
          [
            72.9475,
            19.18
          ],
          [
            72.95,
            19.185
          ],
          [
            72.9525,
            19.19
          ],
          [
            72.955,
            19.195
          ]
        ]
      }
    }
  ]
}