{
  "type": "FeatureCollection",
  "features": [
    {
      "type": "Feature",
      "id": "mum-mithi-river",
      "properties": {
        "name": "Mithi River Basin",
        "type": "River / Drainage Channel",
        "risk_factor": "High Siltation"
      },
      "geometry": {
        "type": "LineString",
        "coordinates": [
          [
            72.905,
            19.1245
          ],
          [
            72.90412,
            19.12288
          ],
          [
            72.90325,
            19.12125
          ],
          [
            72.90238,
            19.11962
          ],
          [
            72.9015,
            19.118
          ],
          [
            72.90012,
            19.11575
          ],
          [
            72.89875,
            19.1135
          ],
          [
            72.89738,
            19.11125
          ],
          [
            72.896,
            19.109
          ],
          [
            72.89463,
            19.107
          ],
          [
            72.89325,
            19.105
          ],
          [
            72.89188,
            19.103
          ],
          [
            72.8905,
            19.101
          ],
          [
            72.889,
            19.09875
          ],
          [
            72.8875,
            19.0965
          ],
          [
            72.886,
            19.09425
          ],
          [
            72.8845,
            19.092
          ],
          [
            72.88288,
            19.08925
          ],
          [
            72.88125,
            19.0865
          ],
          [
            72.87962,
            19.08375
          ],
          [
            72.878,
            19.081
          ],
          [
            72.8765,
            19.07912
          ],
          [
            72.875,
            19.07725
          ],
          [
            72.8735,
            19.07538
          ],
          [
            72.872,
            19.0735
          ],
          [
            72.8705,
            19.07187
          ],
          [
            72.869,
            19.07025
          ],
          [
            72.8675,
            19.06862
          ],
          [
            72.866,
            19.067
          ],
          [
            72.86425,
            19.06587
          ],
          [
            72.8625,
            19.06475
          ],
          [
            72.86075,
            19.06363
          ],
          [
            72.859,
            19.0625
          ],
          [
            72.857,
            19.0615
          ],
          [
            72.855,
            19.0605
          ],
          [
            72.853,
            19.0595
          ],
          [
            72.851,
            19.0585
          ],
          [
            72.84875,
            19.05687
          ],
          [
            72.8465,
            19.05525
          ],
          [
            72.84425,
            19.05362
          ],
          [
            72.842,
            19.052
          ],
          [
            72.84025,
            19.05025
          ],
          [
            72.8385,
            19.0485
          ],
          [
            72.83675,
            19.04675
          ],
          [
            72.835,
            19.045
          ],
          [
            72.83337,
            19.04388
          ],
          [
            72.83175,
            19.04275
          ],
          [
            72.83013,
            19.04163
          ],
          [
            72.8285,
            19.0405
          ]
        ]
      }
    },
    {
      "type": "Feature",
      "id": "mum-powai-lake",
      "properties": {
        "name": "Powai Lake",
        "type": "Freshwater Lake",
        "risk_factor": "Reservoir"
      },
      "geometry": {
        "type": "Polygon",
        "coordinates": [
          [
            [
              72.895,
              19.12
            ],
            [
              72.915,
              19.122
            ],
            [
              72.918,
              19.135
            ],
            [
              72.9,
              19.136
            ],
            [
              72.895,
              19.12
            ]
          ]
        ]
      }
    }
  ]
}